GLOBALSTAR M063         
1 26081U 00008A   26012.90266125 -.00000049  00000+0  49556-3 0  9992
2 26081  51.9958 279.2544 0005093   4.2711  75.3428 11.86179941182468
GLOBALSTAR M062         
1 26082U 00008B   26012.82702345 -.00000067  00000+0  21963-3 0  9995
2 26082  51.9819 199.2866 0006848 189.8866 183.1199 12.43481477522705
GLOBALSTAR M060         
1 26083U 00008C   26012.89549681  .00000020  00000+0  11030-2 0  9996
2 26083  51.9988 188.7637 0003289 169.5430 338.7179 12.17672535177913
GLOBALSTAR M064         
1 26084U 00008D   26012.46671601 -.00000120  00000+0 -52370-3 0  9994
2 26084  52.0056  16.7613 0001616 101.0121 259.0894 11.88539011191986
GLOBALSTAR M065         
1 31571U 07020A   26012.86247710 -.00000042  00000+0  34466-3 0  9994
2 31571  51.9911 308.0767 0010618  53.1363 342.3678 12.62017693859881
GLOBALSTAR M069         
1 31573U 07020C   26012.87819330 -.00000076  00000+0  15101-3 0  9992
2 31573  52.0058 331.7112 0001475 177.4508 210.6194 12.23466072859792
GLOBALSTAR M072         
1 31574U 07020D   26012.69612809 -.00000073  00000+0  14971-3 0  9996
2 31574  51.9916 154.2046 0001457  56.8075 316.0390 11.91655065856441
GLOBALSTAR M071         
1 31576U 07020F   26012.69985240 -.00000087  00000+0  37659-4 0  9994
2 31576  52.0084   3.7391 0000788 157.4066  13.9047 12.18264180520473
